CRE (WAAS/PRN 138)      
1 28868U 05036A   24345.64331032 -.00000059  00000+0  00000+0 0  9999
2 28868   2.8884  83.4692 0001411 170.0436 310.6578  1.00271204 40904
IOR-W (EGNOS/PRN 126)   
1 28899U 05044A   24345.67058148 -.00000247  00000+0  00000+0 0  9998
2 28899   4.3901  43.0106 0002949 217.7357 204.0424  1.00271724 69976
GSAT-8 (GAGAN/PRN 127)  
1 37605U 11022A   24345.88993958  .00000100  00000+0  00000+0 0  9993
2 37605   0.6960  88.9594 0009011 175.5441 191.0583  1.00272270 47677
LUCH 5A (SDCM/PRN 140)  
1 37951U 11074B   24345.56720244 -.00000035  00000+0  00000+0 0  9993
2 37951   7.3376  82.1934 0004840 165.2885 203.3953  1.00269315 47644
SES-5 (EGNOS/PRN 136)   
1 38652U 12036A   24345.88003521  .00000050  00000+0  00000+0 0  9994
2 38652   0.0554 303.0837 0002025 310.4228 148.3867  1.00271107 38921
GSAT-10 (GAGAN/PRN 128) 
1 38779U 12051B   24344.46619353 -.00000149  00000+0  00000+0 0  9990
2 38779   0.0488 254.1134 0002395 229.9593 205.4773  1.00269302 44542
LUCH 5B (SDCM/PRN 125)  
1 38977U 12061A   24345.48382650 -.00000126  00000+0  00000+0 0  9996
2 38977   9.2761  55.1366 0006284 178.7903   3.6177  1.00271053 44621
ASTRA 5B (EGNOS/PRN 123)
1 39617U 14011B   24343.21577146  .00000153  00000+0  00000+0 0  9999
2 39617   0.0497 328.7589 0004365 294.9188 274.9403  1.00270363 39091
LUCH 5V (SDCM/PRN 141)  
1 39727U 14023A   24345.89784573 -.00000254  00000+0  00000+0 0  9997
2 39727   3.7447  74.7301 0004384 202.6066 220.7286  1.00272511 38814
GSAT-15 (GAGAN/PRN 139) 
1 41028U 15065A   24346.03382677 -.00000242  00000+0  00000+0 0  9994
2 41028   0.0276 276.0363 0002813 321.7348 308.1613  1.00270970 33319
E 117 W B (WAAS/PRN 131)
1 41589U 16038B   24345.99872017  .00000005  00000+0  00000+0 0  9999
2 41589   0.0124 160.8807 0000186 286.7640 235.1020  1.00270973 31156
SES-15 (WAAS/PRN 133)   
1 42709U 17026A   24345.99637440  .00000075  00000+0  00000+0 0  9998
2 42709   0.0230  24.8729 0001012 194.7479  90.1506  1.00277445 28636
QZS-2 (QZSS/PRN 194)    
1 42738U 17028A   24345.61924440 -.00000165  00000+0  00000+0 0  9991
2 42738  40.2914 251.2153 0758260 269.4249 283.0954  1.00285248  2079
QZS-3 (QZSS/PRN 199)    
1 42917U 17048A   24345.82375939 -.00000332  00000+0  00000+0 0  9994
2 42917   0.0665 145.4745 0001383 105.5687 252.6029  1.00271557 26719
QZS-4 (QZSS/PRN 195)    
1 42965U 17062A   24345.90436177 -.00000327  00000+0  00000+0 0  9998
2 42965  40.4297 350.5454 0752515 271.4707 280.6698  1.00252129 26259
BEIDOU-3 G1 (PRN 130)   
1 43683U 18085A   24345.90679442 -.00000261  00000+0  00000+0 0  9993
2 43683   2.6298 103.4005 0001717  64.6366  18.5314  1.00274840 22511
BEIDOU-3 G2 (PRN 144)   
1 45344U 20017A   24346.10931911 -.00000127  00000+0  00000+0 0  9993
2 45344   2.5624  35.6934 0004539 223.8862 300.1360  1.00270947 17723
BEIDOU-3 G3 (PRN 143)   
1 45807U 20040A   24345.90097344 -.00000338  00000+0  00000+0 0  9997
2 45807   1.1283  57.3472 0003837 295.4522 162.1300  1.00264770 16523
GALAXY 30 (WAAS/PRN 135)
1 46114U 20056C   24345.49682970  .00000053  00000+0  00000+0 0  9998
2 46114   0.0177 351.2259 0002187 262.7802 239.5798  1.00270333 15744
QZS-1R (QZSS/PRN 196)   
1 49336U 21096A   24345.61702010 -.00000237  00000+0  00000+0 0  9999
2 49336  36.3127  87.8644 0753324 271.1996  78.2283  1.00261680 11450
